OUFTI-1                 
1 41458U 16025C   21267.38728707  .00004204  00000-0  20043-3 0  9998
2 41458  98.1586  50.6536 0157798  85.9116 276.0130 15.09325839297397
E-ST@R-II               
1 41459U 16025D   21267.46041196  .00004103  00000-0  19823-3 0  9990
2 41459  98.1558  49.6801 0159517  89.0315 272.9199 15.08693057297341
AAUSAT 4                
1 41460U 16025E   21267.34586846  .00004985  00000-0  22790-3 0  9990
2 41460  98.1554  53.9509 0145400  71.6155 290.0860 15.12051810297657
AIST-2D (RS-48)         
1 41465U 16026B   21267.52307964  .00003007  00000-0  85648-4 0  9994
2 41465  97.0912 148.1901 0011816  25.9633  94.0663 15.36786082302648
SAMSAT-218D             
1 41466U 16026C   21267.43399029  .00033666  00000-0  41602-3 0  9993
2 41466  97.1464 176.1999 0002458 336.1436 144.1549 15.60065251304243
NUSAT-1 (FRESCO)        
1 41557U 16033B   21267.56676595  .00002718  00000-0  96258-4 0  9994
2 41557  97.3938   0.9821 0011314 239.9955 215.4791 15.29942342296686
NUSAT-2 (BATATA)        
1 41558U 16033C   21267.56283759  .00002879  00000-0  95459-4 0  9991
2 41558  97.4068   5.2675 0010479 231.4011 224.7548 15.32048953296893
CARTOSAT-2C             
1 41599U 16040A   21267.58861553 -.00000999  00000-0 -44039-4 0  9991
2 41599  97.3894 324.8799 0015060  35.0871 102.2488 15.19290520291560
SATHYABAMASAT           
1 41600U 16040B   21267.38902873  .00004388  00000-0  16884-3 0  9993
2 41600  97.2622 321.9293 0012233 355.5412   4.5716 15.26832017292243
LAPAN-A3                
1 41603U 16040E   21267.60336736  .00000239  00000-0  14102-4 0  9993
2 41603  97.2465 310.7209 0013801  22.3167  98.7543 15.20103420291641
BIROS                   
1 41604U 16040F   21267.36780861  .00001119  00000-0  50762-4 0  9999
2 41604  97.2525 316.4719 0011942   0.8159 359.3096 15.22774942291952
SWAYAM                  
1 41607U 16040J   21267.37273727  .00004001  00000-0  15604-3 0  9999
2 41607  97.2577 320.5903 0012019 356.6142   3.5014 15.26438341292136
BEESAT-4                
1 41619U 16040W   21267.42361016  .00003733  00000-0  14750-3 0  9999
2 41619  97.2592 320.7199 0009926 351.2196   8.8868 15.26060534280102
3CAT-2                  
1 41732U 16051B   21267.34528628  .00002303  00000-0  83456-4 0  9994
2 41732  97.3744 186.7855 0013094 148.6418 329.2665 15.29324290284613
PRATHAM                 
1 41783U 16059A   21267.41981214  .00000097  00000-0  27773-4 0  9998
2 41783  97.9545 314.0848 0032226 294.7886  64.9965 14.63167835266727
ALSAT 1N                
1 41789U 16059G   21267.57983662  .00000129  00000-0  33067-4 0  9999
2 41789  97.9584 318.1718 0026884 278.2879  81.5285 14.64456712266950
LISHUI 1-01             
1 41845U 16066E   21267.56822537  .00012684  00000-0  15479-2 0  9996
2 41845  98.7340  16.4000 0270243 174.9664 185.3303 14.60814774257864
CARTOSAT-2D             
1 41948U 17008A   21267.53528504  .00000935  00000-0  47587-4 0  9994
2 41948  97.4322 326.3449 0007277 164.1601 195.9882 15.19238950255421
NAYIF-1 (EO-88)         
1 42017U 17008BX  21267.15462610  .00004531  00000-0  16452-3 0  9997
2 42017  97.3068 332.9777 0007487 113.5420 246.6608 15.28782271256333
ZHUHAI-1 02 (CAS-4B)    
1 42759U 17034B   21267.57217451  .00000828  00000-0  62846-4 0  9990
2 42759  43.0189 356.0985 0007269  56.5590  74.4583 15.10381606236131
ZHUHAI-1 01 (CAS-4A)    
1 42761U 17034D   21267.55755373  .00000645  00000-0  51777-4 0  9999
2 42761  43.0203 355.1591 0007686  58.2710  73.6625 15.10468031236136
UCLSAT                  
1 42765U 17036A   21267.13826542  .00003278  00000-0  13269-3 0  9994
2 42765  97.2395 313.5477 0010679 179.2782 180.8474 15.25326532237211
NIUSAT                  
1 42766U 17036B   21267.39984477  .00002433  00000-0  10583-3 0  9993
2 42766  97.2405 309.9087 0014886 180.1228 180.0009 15.23089901236275
CARTOSAT-2E             
1 42767U 17036C   21267.57470988  .00000801  00000-0  41322-4 0  9994
2 42767  97.4947 325.8964 0007441 217.1077 277.0913 15.19203452235995
LITUANICASAT-2          
1 42768U 17036D   21267.44316337  .00005883  00000-0  22325-3 0  9994
2 42768  97.2473 314.9807 0013880 168.0378 192.1194 15.27127473236575
AALTO-1                 
1 42775U 17036L   21267.37810892  .00001792  00000-0  79004-4 0  9991
2 42775  97.2375 310.0829 0013388 178.8084 181.3188 15.22973659236259
URSA MAIOR              
1 42776U 17036M   21267.42817942  .00001994  00000-0  86825-4 0  9994
2 42776  97.2389 310.6562 0013194 177.8097 182.3200 15.23269260236289
COMPASS 2               
1 42777U 17036N   21267.39599625  .00004719  00000-0  18406-3 0  9993
2 42777  97.2458 314.9727 0011892 168.7873 191.3633 15.26340280236501
MAX VALIER SAT          
1 42778U 17036P   21267.52884345  .00002450  00000-0  10395-3 0  9994
2 42778  97.2456 312.8604 0011794 178.2244 181.9037 15.23962461236376
PEGASUS                 
1 42784U 17036V   21267.54053852  .00003520  00000-0  14419-3 0  9994
2 42784  97.2403 313.4065 0011270 180.4186 179.7044 15.24868725236453
NUDTSAT                 
1 42787U 17036Y   21267.61042434  .00003987  00000-0  15279-3 0  9991
2 42787  97.2463 316.2263 0009291 173.7790 186.3557 15.27047327236463
SUCHAI                  
1 42788U 17036Z   21267.09194209  .00003784  00000-0  15086-3 0  9993
2 42788  97.2415 314.0967 0010815 178.4145 181.7130 15.25744768236522
SKCUBE                  
1 42789U 17036AA  21267.40177840  .00003392  00000-0  13672-3 0  9995
2 42789  97.2407 314.0589 0010752 177.8707 182.2579 15.25441971236478
VZLUSAT-1               
1 42790U 17036AB  21267.40979804  .00004992  00000-0  19075-3 0  9997
2 42790  97.2439 316.0186 0010312 171.9714 188.1692 15.27011880236582
ROBUSTA-1B              
1 42792U 17036AD  21267.09209701  .00003704  00000-0  14791-3 0  9996
2 42792  97.2409 314.1791 0010315 178.5538 181.5733 15.25707020236468
D-SAT                   
1 42794U 17036AF  21267.30509197  .00000450  00000-0  44176-4 0  9990
2 42794  97.4597 281.9385 0123665 255.3845 103.3635 14.91688077231794
NORSAT 2                
1 42828U 17042D   21267.49691078  .00000712  00000-0  75379-4 0  9995
2 42828  97.4628 133.3182 0014353 167.9146 192.2421 14.91958546228503
TECHNOSAT               
1 42829U 17042E   21267.42170593  .00000285  00000-0  33725-4 0  9997
2 42829  97.4540 131.6290 0014255 170.3834 189.7661 14.91346172228436
2017-042F               
1 42830U 17042F   21267.39912307  .00001262  00000-0  12610-3 0  9997
2 42830  97.4668 134.6338 0014091 161.9096 198.2628 14.93083766228560
FLYING LAPTOP           
1 42831U 17042G   21267.52856283  .00000893  00000-0  94622-4 0  9996
2 42831  97.4549 131.9802 0013989 169.7546 190.3965 14.91354880228457
CORVUS BC2              
1 42846U 17042X   21267.39974820  .00000266  00000-0  31090-4 0  9999
2 42846  97.4570 134.2831 0009922 158.7733 201.3901 14.92361948228595
CORVUS BC1              
1 42847U 17042Y   21267.36395265  .00000285  00000-0  32875-4 0  9990
2 42847  97.4575 134.5063 0009632 157.5829 202.5814 14.92458602228592
SIMPL                   
1 42983U 98067NF  21267.19205708  .00015365  00000-0  13561-3 0  9995
2 42983  51.6343 116.9824 0002386  12.8717 347.2341 15.68909044222899
CZ-4C R/B               
1 43012U 17072C   21267.50535428  .00000133  00000-0  38574-4 0  9995
2 43012  98.7272 286.7689 0128333  50.6775 310.5715 14.56199308205154
RADFXSAT (FOX-1B)       
1 43017U 17073E   21267.47245438  .00001971  00000-0  15636-3 0  9990
2 43017  97.6953 167.4872 0253826 337.5990  21.4291 14.79762772207766
EAGLESAT 1              
1 43018U 17073F   21267.50006837  .00003500  00000-0  26835-3 0  9996
2 43018  97.6960 168.5781 0249916 333.6306  25.2360 14.80953734207704
ECAMSAT                 
1 43019U 98067NG  21267.53453920  .00089479  00000-0  31866-3 0  9990
2 43019  51.6372  68.8865 0002382 316.1335  43.9481 15.88163085305889
INS-1C                  
1 43116U 18004F   21267.17874726  .00003316  00000-0  13323-3 0  9996
2 43116  97.4067 340.7207 0008220 204.0032 156.0825 15.25613577205697
FLOCK 3P'-3             
1 43119U 18004J   21267.46654467  .00002030  00000-0  85225-4 0  9992
2 43119  97.4052 339.7404 0008915 213.3297 146.7380 15.24582724205665
FLOCK 3P'-2             
1 43120U 18004K   21267.46506612  .00001878  00000-0  79942-4 0  9990
2 43120  97.4062 339.4954 0008920 214.4625 145.6034 15.24214214205646
FLOCK 3P'-1             
1 43121U 18004L   21267.19978816  .00008000  00000-0  29419-3 0  9997
2 43121  97.4057 341.6265 0008093 206.0151 154.0683 15.28126638205698
FLOCK 3P'-4             
1 43122U 18004M   21267.45881801  .00001778  00000-0  75794-4 0  9997
2 43122  97.4070 339.6108 0008651 216.3195 143.7457 15.24229716205645
MICROMAS-2A             
1 43131U 18004W   21267.48224294  .00005642  00000-0  20831-3 0  9992
2 43131  97.4046 342.7895 0007653 201.9656 158.1256 15.28132747205883
PICSAT                  
1 43132U 18004X   21267.46174360  .00003784  00000-0  14850-3 0  9998
2 43132  97.4020 341.1088 0008055 209.7898 150.2882 15.26319806205782
CNUSAIL-1               
1 43133U 18004Y   21267.49174702  .00003003  00000-0  12234-3 0  9990
2 43133  97.3987 339.9547 0008201 212.8073 147.2656 15.25221258205723
2018-004Z               
1 43134U 18004Z   21267.47164405  .00003327  00000-0  13247-3 0  9992
2 43134  97.4009 340.7309 0008011 211.3128 148.7634 15.25920161205765
FOX-1D (AO-92)          
1 43137U 18004AC  21267.44928087  .00002926  00000-0  11779-3 0  9998
2 43137  97.3990 340.4547 0007755 212.5748 147.5012 15.25653638205750
STEP CUBE LAB           
1 43138U 18004AD  21267.43964203  .00005050  00000-0  18965-3 0  9993
2 43138  97.4043 342.5195 0007512 207.1260 152.9588 15.27624868205868
XIAOXIANG-2             
1 43155U 18008A   21267.56286648  .00001482  00000-0  88013-4 0  9997
2 43155  97.3933 329.5201 0016768 351.6641 116.4843 15.12719899203059
